satname,norad_id,inclination_deg,eccentricity,mean_motion_rev_per_day,perigee_km,apogee_km,l1,l2
STARLINK-1008,44714,53.0558,0.0001616,15.06428486,546.0051316081599,548.243376045396,1 44714U 19074B   25316.80167968  .00008849  00000+0  61173-3 0  9992,2 44714  53.0558 351.3441 0001616  89.9071 270.2103 15.06428486331137
STARLINK-1010,44716,53.034,0.0003199,16.20076318,217.23413506231554,221.45520383443,1 44716U 19074D   25316.55691137  .02307275  11814-4  11553-2 0  9999,2 44716  53.0340 268.9479 0003199 143.7743 216.3512 16.20076318332243
STARLINK-1011,44717,53.0444,0.0004564,15.93282231,290.060314162366,296.1498239229886,1 44717U 19074E   25316.91668980  .00671781  19577-3  18591-2 0  9996,2 44717  53.0444 325.9317 0004564  23.7674 152.6535 15.93282231  6068
STARLINK-1012,44718,53.0553,9.25e-05,15.06422633,546.501603596269,547.7827802467746,1 44718U 19074F   25316.31513496  .00014127  00000+0  96480-3 0  9998,2 44718  53.0553 353.5315 0000925 104.1740 255.9352 15.06422633331050
STARLINK-1017,44723,53.0514,0.0002998,15.1591225,516.1429110934378,520.277961016096,1 44723U 19074L   25316.28542962  .00095025  00000+0  48523-2 0  9990,2 44723  53.0514 349.5195 0002998 341.9218  18.1668 15.15912250331112
STARLINK-1019,44724,53.054,0.0001381,15.37251432,453.29773489836134,455.1848377810484,1 44724U 19074M   25316.91668980  .01415026  00000+0  34642-1 0  9994,2 44724  53.0540 348.9532 0001381  80.5533 211.7347 15.37251432  5857
STARLINK-1020,44725,53.0555,0.0001864,15.06458604,545.7410994490938,548.3228024340051,1 44725U 19074N   25316.58235972  .00022297  00000+0  15086-2 0  9994,2 44725  53.0555  12.3306 0001864 100.3193 259.8006 15.06458604330812
STARLINK-1031,44736,53.0505,0.0006179,15.50532132,410.97376143153724,419.3689318863371,1 44736U 19074Z   25316.91668980  .00167930  00000+0  28362-2 0  9997,2 44736  53.0505 336.3970 0006179 325.6931 353.3240 15.50532132  5964
STARLINK-1036,44741,53.0544,0.0001508,15.06410693,546.1344480067373,548.2231232476825,1 44741U 19074AE  25316.54551513  .00011413  00000+0  78365-3 0  9998,2 44741  53.0544  12.4968 0001508  86.9167 273.1994 15.06410693330819
STARLINK-1039,44744,53.0527,0.0002008,15.13874048,523.0129432169597,525.7850016634911,1 44744U 19074AH  25316.49039205  .00040344  00000+0  22083-2 0  9994,2 44744  53.0527  30.1240 0002008 201.3225 158.7684 15.13874048330569
STARLINK-1042,44747,53.0469,0.0003498,15.43738165,432.70498362307626,437.47151600784673,1 44747U 19074AL  25316.63568565  .00043061  00000+0  94203-3 0  9992,2 44747  53.0469 293.7925 0003498 111.9593 248.1785 15.43738165331954
STARLINK-1043,44748,53.0549,8.46e-05,15.06449971,546.4725367225019,547.6442797855789,1 44748U 19074AM  25316.25246846  .00011374  00000+0  78019-3 0  9995,2 44748  53.0549  33.8126 0000846  76.9989 283.1095 15.06449971330497
STARLINK-1046,44751,53.0552,0.0001264,15.06420727,546.2726773686682,548.0233894251114,1 44751U 19074AQ  25316.20087914  .00008849  00000+0  61188-3 0  9995,2 44751  53.0552  34.0438 0001264 101.4373 258.6758 15.06420727330480
STARLINK-1047,44752,53.0719,0.0002194,15.2956183,475.61714883361674,478.6252361284769,1 44752U 19074AR  25316.32608502  .00024721  00000+0  86065-3 0  9999,2 44752  53.0719 333.0330 0002194 190.0420 170.0536 15.29561830331364
STARLINK-1048,44753,53.0545,0.0002063,15.06413609,545.7411578244673,548.5985394302115,1 44753U 19074AS  25316.82380244  .00002195  00000+0  16615-3 0  9990,2 44753  53.0545 351.2479 0002063  78.3336 281.7885 15.06413609331134
STARLINK-1053,44758,53.0407,0.0004442,15.62066206,378.68679630840234,384.6922261809923,1 44758U 19074AX  25316.25661933  .00130100  00000+0  14416-2 0  9993,2 44758  53.0407 307.5053 0004442  65.4949 294.6527 15.62066206331717
STARLINK-1054,44759,53.032,0.000647,16.06741508,251.50514013355132,260.08945111208686,1 44759U 19074AY  25316.47736480  .01169671  80200-3  15032-2 0  9993,2 44759  53.0320 326.9983 0006470  34.2561 325.8887 16.06741508329094
STARLINK-1060,44765,53.0536,0.0005955,15.6618778,365.8064692639018,373.8432918636536,1 44765U 19074BE  25316.91668980  .00215116  00000+0  20011-2 0  9992,2 44765  53.0536 350.1782 0005955  21.5503  83.7567 15.66187780  5736
STARLINK-1063,44768,53.0544,0.000146,15.06439253,546.0801724337116,548.1023390843939,1 44768U 19074BH  25316.72059828  .00028479  00000+0  19211-2 0  9993,2 44768  53.0544  31.7140 0001460  88.9415 271.1742 15.06439253330574
STARLINK-1067,44771,53.0547,0.0001247,15.06394879,546.3636601878188,548.0908460325445,1 44771U 19074BL  25316.57684705 -.00003178  00000+0 -19461-3 0  9997,2 44771  53.0547  32.3582 0001247  80.8002 279.3128 15.06394879330543
STARLINK-1068,44772,53.0548,0.0001476,15.06458597,546.0098174538252,548.054127334477,1 44772U 19074BM  25316.56762000  .00026647  00000+0  17982-2 0  9991,2 44772  53.0548  12.3988 0001476 100.2372 259.8784 15.06458597330813
STARLINK-1112,44925,53.0468,0.000328,15.55987543,397.0604882156813,401.5064760519617,1 44925U 20001M   25315.83506207  .00139338  00000+0  19408-2 0  9994,2 44925  53.0468 109.5174 0003280 185.2399 174.8578 15.55987543322738
STARLINK-1114,44927,53.0498,0.0001308,15.06411077,546.2717775858673,548.0834398875122,1 44927U 20001P   25316.27461801  .00007167  00000+0  49937-3 0  9990,2 44927  53.0498 153.7180 0001308  96.0472 264.0666 15.06411077322157
STARLINK-1123,44930,53.0524,0.000137,15.06416712,546.2115728033905,548.1091042741509,1 44930U 20001S   25316.82012306  .00004366  00000+0  31170-3 0  9995,2 44930  53.0524 151.2680 0001370  91.4260 268.6886 15.06416712322236
STARLINK-1144,44933,53.0418,0.0006273,15.64373867,370.8038413968852,379.2763773983361,1 44933U 20001V   25316.91668980  .00132414  00000+0  13395-2 0  9997,2 44933  53.0418  80.6899 0006273 135.0848 112.8694 15.64373867  6000
STARLINK-1094,44941,53.0526,0.0001349,15.06423781,546.2044538688378,548.072893245564,1 44941U 20001AD  25316.76668801  .00009179  00000+0  63390-3 0  9993,2 44941  53.0526 131.5078 0001349  90.1258 269.9886 15.06423781322509
STARLINK-1096,44942,52.9823,0.0006269,16.00512359,268.82927613377615,277.1684702916109,1 44942U 20001AE  25316.91668980  .00917710  41705-3  17060-2 0  9991,2 44942  52.9823 241.5321 0006269 113.5633 264.6515 16.00512359  6071
STARLINK-1122,44949,53.0528,0.0001647,15.06400686,546.0688508866651,548.3500600090892,1 44949U 20001AM  25315.92628899  .00000819  00000+0  73878-4 0  9996,2 44949  53.0528 135.2754 0001647  93.4658 266.6519 15.06400686322373
STARLINK-1080,44961,53.0536,0.0001365,15.06416289,546.2163316855085,548.106938212849,1 44961U 20001AZ  25316.78694215  .00003795  00000+0  27343-3 0  9991,2 44961  53.0536 111.4157 0001365  88.7373 271.3772 15.06416289322793
STARLINK-1090,44968,53.0509,0.0001483,15.0641957,546.1245590598846,548.1785996525214,1 44968U 20001BG  25316.72428257  .00006722  00000+0  46946-3 0  9996,2 44968  53.0509 111.6962 0001483  90.8346 269.2812 15.06419570322787
STARLINK-1107,44972,53.0064,0.000724,15.74946723,339.91539764627123,349.65018550447166,1 44972U 20001BL  25316.91668980  .00508547  00000+0  31638-2 0  9994,2 44972  53.0064  19.5122 0007240 358.9527 137.3192 15.74946723  6019
STARLINK-1132,45044,53.0553,0.000112,15.06407616,546.4125796693215,547.9638525177252,1 45044U 20006A   25315.48949841  .00001008  00000+0  86558-4 0  9992,2 45044  53.0553  77.2395 0001120  91.2688 268.8429 15.06407616318929
STARLINK-1131,45047,53.0463,0.0002673,15.06396677,545.3705940815371,549.0728908652627,1 45047U 20006D   25316.12908758 -.00003011  00000+0 -18331-3 0  9990,2 45047  53.0463  94.9089 0002673  88.8394 271.2901 15.06396677318734
STARLINK-1134,45048,53.0401,0.0012282,15.26667851,477.3514930892361,494.21202312665173,1 45048U 20006E   25297.87285069  .00016521  00000+0  63194-3 0  9999,2 45048  53.0401 155.6330 0012282 116.8822 243.3433 15.26667851316281
STARLINK-1156,45054,53.0542,0.0001321,15.06406309,546.2773858392211,548.1070578196295,1 45054U 20006L   25316.09952295  .00001538  00000+0  12213-3 0  9992,2 45054  53.0542  94.5010 0001321  90.4406 269.6734 15.06406309318731
STARLINK-1159,45057,53.0541,0.0001122,15.47438105,423.460365975091,424.98681569167366,1 45057U 20006P   25316.33336806  .01283637  00000+0  22244-1 0  9992,2 45057  53.0541  90.1639 0001122  95.3098 260.1062 15.47438105  5852
STARLINK-1166,45060,53.0579,7.29e-05,15.06438162,546.5897499901312,547.5994487573198,1 45060U 20006S   25316.12529380  .00008455  00000+0  58524-3 0  9998,2 45060  53.0579  94.3845 0000729 255.6302 104.4606 15.06438162318740
STARLINK-1169,45061,53.0538,0.0001394,15.06403178,546.2364256119099,548.1672100743235,1 45061U 20006T   25315.80096272  .00001123  00000+0  94254-4 0  9998,2 45061  53.0538  95.8422 0001394 100.9550 259.1596 15.06403178318698
STARLINK-1171,45062,53.054,0.0003935,15.35116502,457.88344065319416,463.26550658293127,1 45062U 20006U   25316.08744337  .00090741  00000+0  26039-2 0  9990,2 45062  53.0540  90.0292 0003935 320.6927  39.3788 15.35116502318804
STARLINK-1133,45064,53.0533,0.0001277,15.06412009,546.2903900166293,548.0591146381739,1 45064U 20006W   25316.06450478  .00006678  00000+0  46666-3 0  9995,2 45064  53.0533  74.6557 0001277  90.6199 269.4936 15.06412009319016
STARLINK-1167,45071,53.0558,0.00016,15.06408486,546.0774980846281,548.2936013005292,1 45071U 20006AD  25316.02395322  .00001242  00000+0  10226-3 0  9990,2 45071  53.0558  74.8389 0001600  94.2345 265.8827 15.06408486319001
STARLINK-1168,45072,53.0546,0.0001224,15.06413115,546.3237049002191,548.0190203873944,1 45072U 20006AE  25316.29302461  .00001720  00000+0  13429-3 0  9991,2 45072  53.0546  73.6303 0001224  87.3656 272.7474 15.06413115319046
STARLINK-1172,45074,53.0521,0.0001198,15.06416851,546.3302619615779,547.9895631018198,1 45074U 20006AG  25316.30407957  .00001942  00000+0  14915-3 0  9998,2 45074  53.0521  73.5808 0001198  80.1111 280.0014 15.06416851319049
